OBJECT_NAME,OBJECT_ID,EPOCH,MEAN_MOTION,ECCENTRICITY,INCLINATION,RA_OF_ASC_NODE,ARG_OF_PERICENTER,MEAN_ANOMALY,EPHEMERIS_TYPE,CLASSIFICATION_TYPE,NORAD_CAT_ID,ELEMENT_SET_NO,REV_AT_EPOCH,BSTAR,MEAN_MOTION_DOT,MEAN_MOTION_DDOT
COSMOS 2251 DEB,1993-036BSA,2024-10-04T15:18:38.488608,14.3482513700,0.0026618000,74.0241000000,25.2472000000,222.3602000000,137.5495000000,0,U,38068,999,60417,0.0016917000,0.0000479700,0E-10
COSMOS 2251 DEB,1993-036BSB,2024-09-27T20:05:04.620192,15.0929568500,0.0038415000,74.1458000000,213.8866000000,130.3214000000,260.2439000000,0,U,38069,999,69106,0.0261410000,0.0045023600,0E-10
COSMOS 2251 DEB,1993-036BSE,2024-09-14T12:14:14.005248,14.7744633300,0.0008602000,74.0381000000,196.1908000000,303.2874000000,56.7476000000,0,U,38190,999,72817,0.0126710000,0.0009152100,0E-10
COSMOS 2251 DEB,1993-036BSM,2024-10-05T07:07:19.556832,14.5095669300,0.0179938000,73.9446000000,114.0457000000,90.0370000000,272.1408000000,0,U,38197,999,79414,0.0053934000,0.0002636100,0E-10
COSMOS 2251 DEB,1993-036BSP,2024-10-05T01:30:48.549024,13.6356842100,0.0372587000,73.9565000000,54.1015000000,66.3513000000,297.6243000000,0,U,38199,999,55107,0.0026866000,0.0000337800,0E-10
COSMOS 2251 DEB,1993-036BSY,2024-10-06T05:28:37.721568,14.6426011100,0.0006010000,74.0183000000,205.1105000000,31.0263000000,119.5482000000,0,U,38208,999,69715,0.0089701000,0.0004761100,0E-10
COSMOS 2251 DEB,1993-036BTC,2024-10-04T05:26:58.945632,14.7324349700,0.0100627000,74.0578000000,206.1274000000,27.0277000000,333.6084000000,0,U,38212,999,74900,0.0024761000,0.0001734900,0E-10
COSMOS 2251 DEB,1993-036BTD,2024-10-04T08:37:47.302464,14.9007143900,0.0007957000,74.0265000000,144.7409000000,197.9955000000,162.0946000000,0,U,38213,999,54091,0.0123520000,0.0012151300,0E-10
COSMOS 2251 DEB,1993-036BTL,2024-10-06T04:08:26.122848,14.6768459200,0.0005117000,74.0275000000,202.1510000000,334.8611000000,25.2309000000,0,U,38220,999,79088,0.0081166000,0.0004649800,0E-10
COSMOS 2251 DEB,1993-036BTP,2024-09-22T19:26:11.745888,14.3082865500,0.0092356000,74.0029000000,283.2760000000,137.6557000000,36.6969000000,0,U,38479,999,58290,0.0014603000,0.0000398900,0E-10
COSMOS 2251 DEB,1993-036BTR,2024-10-06T01:34:30.517536,13.9160520200,0.0239553000,73.9343000000,33.7007000000,61.1788000000,301.3162000000,0,U,38481,999,75936,0.0058930000,0.0000942700,0E-10
COSMOS 2251 DEB,1993-036BTT,2024-10-06T01:57:20.655648,14.2511756700,0.0119117000,74.2652000000,64.1951000000,299.0662000000,59.8597000000,0,U,38483,999,78079,0.0054753000,0.0001383400,0E-10
COSMOS 2251 DEB,1993-036BTV,2024-10-04T09:15:54.709632,14.8714895900,0.0026509000,74.0054000000,318.3033000000,221.7539000000,138.1619000000,0,U,38485,999,11335,0.0068979000,0.0006294200,0E-10
COSMOS 2251 DEB,1993-036BTW,2024-10-01T22:07:02.448768,14.5579828100,0.0039009000,73.9652000000,329.8789000000,222.1934000000,316.6630000000,0,U,38486,999,69268,0.0085526000,0.0003804300,0E-10
COSMOS 2251 DEB,1993-036BTX,2024-10-04T03:04:42.405312,14.8694579000,0.0051993000,73.9948000000,201.9127000000,116.7863000000,243.8649000000,0,U,38487,999,60277,0.0066510000,0.0006147600,0E-10
COSMOS 2251 DEB,1993-036BTY,2024-10-05T12:23:13.227648,14.6575153500,0.0063847000,74.0420000000,342.7865000000,200.8732000000,221.8863000000,0,U,39109,999,58814,0.0025742000,0.0001445600,0E-10
COSMOS 2251 DEB,1993-036BTZ,2024-10-05T03:03:00.254592,14.6870803000,0.0101683000,73.9613000000,187.4182000000,163.2942000000,265.1384000000,0,U,39110,999,56109,0.0015292000,0.0000961600,0E-10
COSMOS 2251 DEB,1993-036BUA,2024-10-06T00:48:12.395520,14.7183463100,0.0008792000,74.0235000000,188.8820000000,333.7824000000,26.2902000000,0,U,39111,999,61781,0.0124850000,0.0007902900,0E-10
COSMOS 2251 DEB,1993-036BUC,2024-10-05T17:17:11.378976,14.7706177700,0.0055528000,74.0002000000,278.6369000000,188.8582000000,171.1619000000,0,U,39546,999,58008,0.0046969000,0.0003414600,0E-10
COSMOS 2251 DEB,1993-036BUD,2024-10-04T10:29:09.707424,14.7095786900,0.0002825000,74.0258000000,164.6969000000,19.2660000000,153.9299000000,0,U,39547,999,57570,0.0092104000,0.0005691900,0E-10
COSMOS 2251 DEB,1993-036BUJ,2024-10-05T06:25:11.600832,15.1165136900,0.0017351000,74.0087000000,277.4628000000,225.6933000000,145.5429000000,0,U,39552,999,58135,0.0116450000,0.0020440800,0E-10
COSMOS 2251 DEB,1993-036BUK,2024-10-05T11:19:16.803264,13.9723148900,0.0211757000,74.0296000000,359.0689000000,233.4647000000,124.6827000000,0,U,39553,999,69559,0.0086340000,0.0001461900,0E-10
COSMOS 2251 DEB,1993-036BUL,2024-10-05T08:47:20.563872,14.7720136200,0.0014003000,74.0270000000,57.0205000000,309.5615000000,80.6316000000,0,U,39554,999,57916,0.0077784000,0.0005560400,0E-10
COSMOS 2251 DEB,1993-036BUN,2024-10-05T11:06:02.627424,14.4932050300,0.0161556000,73.9413000000,353.3484000000,204.3729000000,154.9734000000,0,U,39583,999,72291,0.0107290000,0.0004868700,0E-10
COSMOS 2251 DEB,1993-036BUQ,2024-10-05T15:20:39.122016,14.5677170800,0.0069863000,74.0449000000,44.7275000000,276.4776000000,82.8437000000,0,U,39585,999,78207,0.0017063000,0.0000787000,0E-10
COSMOS 2251 DEB,1993-036BUR,2024-10-04T07:43:30.840672,14.1974332800,0.0102002000,74.0082000000,287.3557000000,163.6770000000,208.7901000000,0,U,39586,999,54803,0.0016498000,0.0000365500,0E-10
COSMOS 2251 DEB,1993-036BUT,2024-09-09T03:55:35.078880,14.6710649700,0.0055031000,74.1209000000,49.0137000000,87.1825000000,39.7885000000,0,U,39588,999,65948,0.0125590000,0.0007290100,0E-10
COSMOS 2251 DEB,1993-036BUW,2024-10-03T22:08:12.698880,14.3976342100,0.0029527000,74.0230000000,332.2565000000,195.2766000000,337.5845000000,0,U,39591,999,1043,0.0024984000,0.0000785400,0E-10
COSMOS 2251 DEB,1993-036BUX,2024-10-04T20:03:48.424896,14.3972857800,0.0015752000,74.0327000000,331.9059000000,168.8500000000,191.3007000000,0,U,40218,999,52612,0.0019326000,0.0000604100,0E-10
COSMOS 2251 DEB,1993-036BVC,2024-10-05T15:15:40.934880,14.6832200000,0.0025848000,73.9499000000,232.9797000000,149.8706000000,23.1658000000,0,U,40223,999,68651,0.0117510000,0.0006885800,0E-10
COSMOS 2251 DEB,1993-036BVD,2024-10-02T12:33:37.166112,14.9357162700,0.0081168000,73.9854000000,0.7713000000,43.0474000000,328.9336000000,0,U,40224,999,64513,0.0073409000,0.0008349800,0E-10
COSMOS 2251 DEB,1993-036BVH,2024-10-05T22:14:19.377024,14.3943156700,0.0022798000,74.0582000000,339.8062000000,154.2685000000,19.4497000000,0,U,40228,999,66234,0.0016822000,0.0000523100,0E-10
COSMOS 2251 DEB,1993-036BVK,2024-10-01T19:56:28.077792,14.4505920000,0.0017416000,74.0481000000,323.7332000000,130.1320000000,352.9692000000,0,U,40230,999,52649,0.0023054000,0.0000805200,0E-10
COSMOS 2251 DEB,1993-036BVN,2024-10-05T12:34:58.071072,14.5155482200,0.0051308000,73.9453000000,208.6586000000,17.8247000000,342.4698000000,0,U,40233,999,69368,0.0065955000,0.0002692900,0E-10
COSMOS 2251 DEB,1993-036BVR,2024-09-11T08:53:34.433088,13.2291212500,0.0542540000,73.5387000000,143.6990000000,65.7997000000,299.8807000000,0,U,40236,999,47571,0.0051825000,0.0000475000,0E-10
COSMOS 2251 DEB,1993-036BVS,2024-10-02T13:15:36.772416,14.6995595000,0.0006131000,74.0387000000,195.7065000000,274.6486000000,258.8829000000,0,U,40237,999,53030,0.0084324000,0.0005089500,0E-10
COSMOS 2251 DEB,1993-036BVT,2024-10-04T22:33:54.588096,13.2259851400,0.0561158000,73.9926000000,8.7983000000,63.6766000000,302.0837000000,0,U,40238,999,48294,0.0056418000,0.0000543900,0E-10
COSMOS 2251 DEB,1993-036BVU,2024-10-05T00:07:16.154976,14.5925957600,0.0090183000,74.0356000000,24.9400000000,247.0332000000,231.4389000000,0,U,40239,999,53277,0.0024011000,0.0001198900,0E-10
COSMOS 2251 DEB,1993-036BVV,2024-10-03T22:33:29.857824,14.5942207500,0.0018461000,74.0521000000,162.0750000000,16.9206000000,354.7127000000,0,U,40792,999,70745,0.0049871000,0.0002374400,0E-10
COSMOS 2251 DEB,1993-036BVW,2024-10-05T13:03:32.623776,14.0349782300,0.0217968000,73.9806000000,204.0175000000,94.5199000000,268.0870000000,0,U,40793,999,62162,0.0059590000,0.0001151800,0E-10
COSMOS 2251 DEB,1993-036BVX,2024-10-06T05:17:26.094624,14.6478901100,0.0017640000,73.9782000000,257.4638000000,130.5673000000,246.7699000000,0,U,40794,999,55530,0.0057808000,0.0003101700,0E-10
COSMOS 2251 DEB,1993-036BVZ,2024-09-29T19:07:53.084352,14.7280204700,0.0063089000,74.0165000000,284.9711000000,174.1174000000,0.6908000000,0,U,40796,999,69673,0.0021421000,0.0001413200,0E-10
COSMOS 2251 DEB,1993-036BWA,2024-10-04T06:16:03.260640,14.9593372800,0.0095698000,73.9281000000,270.5767000000,287.3230000000,83.0148000000,0,U,40797,999,67086,0.0029419000,0.0003627900,0E-10
COSMOS 2251 DEB,1993-036BWB,2024-10-03T19:11:31.554528,14.8837014200,0.0008487000,74.0240000000,107.4850000000,128.5432000000,231.6511000000,0,U,40798,999,52861,0.0111960000,0.0010536000,0E-10
COSMOS 2251 DEB,1993-036BWC,2024-10-03T16:08:47.211360,14.8965020600,0.0134485000,73.9262000000,260.0044000000,245.6251000000,113.0845000000,0,U,40799,999,43481,0.0013343000,0.0001512500,0E-10
COSMOS 2251 DEB,1993-036BWF,2024-10-04T16:28:56.288640,14.7110089000,0.0068185000,74.0419000000,280.7873000000,132.4507000000,228.2458000000,0,U,40802,999,58010,0.0024327000,0.0001551500,0E-10
COSMOS 2251 DEB,1993-036BWG,2024-10-04T00:09:43.297632,14.4980274700,0.0033229000,74.0144000000,150.6823000000,114.2695000000,246.1942000000,0,U,40803,999,52447,0.0019277000,0.0000746800,0E-10
COSMOS 2251 DEB,1993-036BWM,2024-10-05T09:18:42.259104,14.5657438200,0.0012095000,74.0494000000,255.7814000000,29.6049000000,122.6899000000,0,U,40808,999,57282,0.0090044000,0.0004037400,0E-10
COSMOS 2251 DEB,1993-036BWP,2024-10-01T17:57:35.407008,14.5377984500,0.0018073000,74.0394000000,184.1662000000,82.7288000000,277.5928000000,0,U,40810,999,55320,0.0024658000,0.0001035600,0E-10
COSMOS 2251 DEB,1993-036BWT,2024-10-06T00:34:12.508032,14.4955463200,0.0040273000,74.0486000000,171.1122000000,39.0255000000,321.3798000000,0,U,46271,999,78367,0.0018518000,0.0000715800,0E-10
